GLOBALSTAR M094         
1 39074U 13005C   25308.17413482 -.00000103  00000+0  19469-5 0  9998
2 39074  51.9933 115.8961 0000851 112.7383 247.3574 12.62264971590056
GLOBALSTAR M096         
1 39075U 13005D   25306.99953813 -.00000063  00000+0  22977-3 0  9995
2 39075  52.0049 168.0973 0000920  97.2629 262.8342 12.62268565588827
GLOBALSTAR M078         
1 39076U 13005E   25308.16143891  .00000003  00000+0  59437-3 0  9998
2 39076  51.9868 248.8830 0001285 103.7316 256.3693 12.62262989587599
GLOBALSTAR M095         
1 39077U 13005F   25308.10828583 -.00000103  00000+0  63755-5 0  9993
2 39077  52.0075 246.3281 0000708 104.4743 255.6202 12.62261281587442
GLOBALSTAR M087         
1 52888U 22064A   25307.96277254 -.00000104  00000+0  13656-5 0  9995
2 52888  52.0018  28.1345 0000611 134.5952 225.4965 12.62260006162691
